NORAD_CAT_ID,OBJECT_NAME,OBJECT_TYPE,EPOCH,MEAN_MOTION,ECCENTRICITY,INCLINATION,RA_OF_ASC_NODE,ARG_OF_PERICENTER,MEAN_ANOMALY,BSTAR,MEAN_MOTION_DOT,MEAN_MOTION_DDOT,TLE_LINE0,TLE_LINE1,TLE_LINE2,SEMIMAJOR_AXIS,PERIOD,APOGEE,PERIGEE,DECAYED
54798.0,STARLINK-5420,PAYLOAD,2023-09-30 10:20:01,15.0884383,0.0001531,53.22,59.898,103.5692,256.547,-6.6584e-05,-1.348e-05,0.0,0 STARLINK-5420,1 54798U 22175AS  23273.43057294 -.00001348  00000-0 -66584-4 0  9992,2 54798  53.2200  59.8980 0001531 103.5692 256.5470 15.08843830 43569,6917.869,95.437,540.793,538.675,0.0
54798.0,STARLINK-5420,PAYLOAD,2023-10-01 13:21:34,15.08846974,0.0001498,53.2198,54.8473,89.2012,270.9151,4.3836e-05,4.1e-06,0.0,0 STARLINK-5420,1 54798U 22175AS  23274.55664816  .00000410  00000-0  43836-4 0  9992,2 54798  53.2198  54.8473 0001498  89.2012 270.9151 15.08846974 45891,6917.859,95.437,540.76,538.688,0.0
54798.0,STARLINK-5420,PAYLOAD,2023-10-01 16:32:20,15.0885418,0.0001408,53.2192,54.2554,88.1087,272.0067,6.9187e-05,8.14e-06,0.0,0 STARLINK-5420,1 54798U 22175AS  23274.68912261  .00000814  00000-0  69187-4 0  9991,2 54798  53.2192  54.2554 0001408  88.1087 272.0067 15.08854180 43750,6917.837,95.437,540.676,538.728,0.0
54798.0,STARLINK-5420,PAYLOAD,2023-10-02 02:04:39,15.08850353,0.000143,53.2191,52.4717,83.5644,276.5511,9.6463e-06,-1.34e-06,0.0,0 STARLINK-5420,1 54798U 22175AS  23275.08656464 -.00000134  00000-0  96463-5 0  9990,2 54798  53.2191  52.4717 0001430  83.5644 276.5511 15.08850353 43811,6917.849,95.437,540.703,538.724,0.0
54798.0,STARLINK-5420,PAYLOAD,2023-10-02 17:58:31,15.08841597,0.0001429,53.2187,49.4951,77.728,282.3873,0.00010636,1.405e-05,0.0,0 STARLINK-5420,1 54798U 22175AS  23275.74897277  .00001405  00000-0  10636-3 0  9999,2 54798  53.2187  49.4951 0001429  77.7280 282.3873 15.08841597 43918,6917.876,95.437,540.729,538.752,0.0
54798.0,STARLINK-5420,PAYLOAD,2023-10-03 13:03:09,15.08837179,0.0001441,53.2179,45.928,91.461,268.6547,4.9155e-05,4.94e-06,0.0,0 STARLINK-5420,1 54798U 22175AS  23276.54385975  .00000494  00000-0  49155-4 0  9991,2 54798  53.2179  45.9280 0001441  91.4610 268.6547 15.08837179 44039,6917.889,95.438,540.751,538.757,0.0
54798.0,STARLINK-5420,PAYLOAD,2023-10-03 14:38:32,15.08841723,0.0001395,53.2181,45.6301,91.2535,268.8617,3.4354e-06,-2.33e-06,0.0,0 STARLINK-5420,1 54798U 22175AS  23276.61009740 -.00000233  00000-0  34354-5 0  9990,2 54798  53.2181  45.6301 0001395  91.2535 268.8617 15.08841723 46206,6917.875,95.437,540.705,538.775,0.0
54798.0,STARLINK-5420,PAYLOAD,2023-10-03 16:13:55,15.08846544,0.000151,53.2188,45.3323,83.6843,276.4321,3.8304e-05,3.22e-06,0.0,0 STARLINK-5420,1 54798U 22175AS  23276.67633378  .00000322  00000-0  38304-4 0  9992,2 54798  53.2188  45.3323 0001510  83.6843 276.4321 15.08846544 44054,6917.86,95.437,540.77,538.681,0.0
54798.0,STARLINK-5420,PAYLOAD,2023-10-04 14:29:19,15.08846747,0.0001468,53.2183,41.1694,88.8068,271.3092,0.000131,1.798e-05,0.0,0 STARLINK-5420,1 54798U 22175AS  23277.60369229  .00001798  00000-0  13100-3 0  9991,2 54798  53.2183  41.1694 0001468  88.8068 271.3092 15.08846747 46351,6917.86,95.437,540.74,538.709,0.0
54798.0,STARLINK-5420,PAYLOAD,2023-10-04 16:04:41,15.08857242,0.0001445,53.2182,40.8724,85.3186,274.7971,0.00034478,5.206e-05,0.0,0 STARLINK-5420,1 54798U 22175AS  23277.66992833  .00005206  00000-0  34478-3 0  9999,2 54798  53.2182  40.8724 0001445  85.3186 274.7971 15.08857242 46364,6917.828,95.436,540.692,538.693,0.0
54798.0,STARLINK-5420,PAYLOAD,2023-10-05 03:12:24,15.08838654,0.0001468,53.2183,38.7904,78.7973,281.3184,8.8643e-05,1.123e-05,0.0,0 STARLINK-5420,1 54798U 22175AS  23278.13361584  .00001123  00000-0  88643-4 0  9993,2 54798  53.2183  38.7904 0001468  78.7973 281.3184 15.08838654 44270,6917.885,95.438,540.765,538.734,0.0
54798.0,STARLINK-5420,PAYLOAD,2023-10-05 12:44:42,15.08845466,0.0001561,53.2185,37.0082,74.8266,285.2899,0.00014073,1.953e-05,0.0,0 STARLINK-5420,1 54798U 22175AS  23278.53105276  .00001953  00000-0  14073-3 0  9997,2 54798  53.2185  37.0082 0001561  74.8266 285.2899 15.08845466 46498,6917.864,95.437,540.809,538.649,0.0
54798.0,STARLINK-5420,PAYLOAD,2023-10-05 15:55:28,15.08862597,0.0001397,53.2188,36.4126,81.7344,278.3807,0.00030637,4.594e-05,0.0,0 STARLINK-5420,1 54798U 22175AS  23278.66352269  .00004594  00000-0  30637-3 0  9995,2 54798  53.2188  36.4126 0001397  81.7344 278.3807 15.08862597 44353,6917.811,95.436,540.643,538.71,0.0
54798.0,STARLINK-5420,PAYLOAD,2023-10-06 01:27:47,15.08841645,0.0001494,53.2203,34.6242,90.3033,269.8131,-4.2895e-05,-9.71e-06,0.0,0 STARLINK-5420,1 54798U 22175AS  23279.06097074 -.00000971  00000-0 -42895-4 0  9997,2 54798  53.2203  34.6242 0001494  90.3033 269.8131 15.08841645 44412,6917.875,95.437,540.774,538.707,0.0
54798.0,STARLINK-5420,PAYLOAD,2023-10-06 11:00:07,15.08833586,0.0001553,53.2187,32.8444,94.9374,265.1795,-0.00023748,-4.065e-05,0.0,0 STARLINK-5420,1 54798U 22175AS  23279.45841794 -.00004065  00000-0 -23748-3 0  9999,2 54798  53.2187  32.8444 0001553  94.9374 265.1795 15.08833586 44477,6917.9,95.438,540.839,538.691,0.0
54798.0,STARLINK-5420,PAYLOAD,2023-10-06 14:10:53,15.08835329,0.0001508,53.2191,32.249,95.1617,264.9548,-0.00019091,-3.325e-05,0.0,0 STARLINK-5420,1 54798U 22175AS  23279.59089797 -.00003325  00000-0 -19091-3 0  9995,2 54798  53.2191  32.2490 0001508  95.1617 264.9548 15.08835329 46652,6917.895,95.438,540.803,538.716,0.0
54798.0,STARLINK-5420,PAYLOAD,2023-10-07 14:01:40,15.08843849,0.000138,53.219,27.7885,97.5513,262.5636,0.00018976,2.734e-05,0.0,0 STARLINK-5420,1 54798U 22175AS  23280.58449774  .00002734  00000-0  18976-3 0  9993,2 54798  53.2190  27.7885 0001380  97.5513 262.5636 15.08843849 46802,6917.869,95.437,540.688,538.779,0.0
54798.0,STARLINK-5420,PAYLOAD,2023-10-07 17:12:26,15.08852012,0.0001362,53.2189,27.193,87.8353,272.2795,0.00015511,2.182e-05,0.0,0 STARLINK-5420,1 54798U 22175AS  23280.71697344  .00002182  00000-0  15511-3 0  9995,2 54798  53.2189  27.1930 0001362  87.8353 272.2795 15.08852012 44667,6917.844,95.437,540.651,538.766,0.0
54798.0,STARLINK-5420,PAYLOAD,2023-10-08 10:41:42,15.08835857,0.0001676,53.2192,23.9236,99.1428,260.9754,0.00025605,3.789e-05,0.0,0 STARLINK-5420,1 54798U 22175AS  23281.44562667  .00003789  00000-0  25605-3 0  9994,2 54798  53.2192  23.9236 0001676  99.1428 260.9754 15.08835857 44770,6917.893,95.438,540.917,538.599,0.0
54798.0,STARLINK-5420,PAYLOAD,2023-10-08 13:52:28,15.08846295,0.0001562,53.2185,23.3298,90.5289,269.5882,0.00035954,5.44e-05,0.0,0 STARLINK-5420,1 54798U 22175AS  23281.57810547  .00005440  00000-0  35954-3 0  9995,2 54798  53.2185  23.3298 0001562  90.5289 269.5882 15.08846295 46955,6917.861,95.437,540.807,538.646,0.0
54798.0,STARLINK-5420,PAYLOAD,2023-10-08 15:27:51,15.08850094,0.0001549,53.2186,23.0308,87.2592,272.8578,0.00040308,6.135e-05,0.0,0 STARLINK-5420,1 54798U 22175AS  23281.64434177  .00006135  00000-0  40308-3 0  9995,2 54798  53.2186  23.0308 0001549  87.2592 272.8578 15.08850094 44803,6917.85,95.437,540.786,538.643,0.0
54798.0,STARLINK-5420,PAYLOAD,2023-10-09 07:21:42,15.0884412,0.0001596,53.219,20.0567,86.5012,273.6162,0.00011658,1.568e-05,0.0,0 STARLINK-5420,1 54798U 22175AS  23282.30674207  .00001568  00000-0  11658-3 0  9990,2 54798  53.2190  20.0567 0001596  86.5012 273.6162 15.08844120 44905,6917.868,95.437,540.837,538.629,0.0
54798.0,STARLINK-5420,PAYLOAD,2023-10-09 13:43:14,15.08853277,0.0001613,53.2186,18.8695,79.9423,280.1751,0.00038386,5.829e-05,0.0,0 STARLINK-5420,1 54798U 22175AS  23282.57169927  .00005829  00000-0  38386-3 0  9998,2 54798  53.2186  18.8695 0001613  79.9423 280.1751 15.08853277 47104,6917.84,95.437,540.821,538.589,0.0
54798.0,STARLINK-5420,PAYLOAD,2023-10-09 15:18:38,15.08855224,0.0001628,53.2185,18.5714,78.3896,281.7279,0.00068386,0.00010617,0.0,0 STARLINK-5420,1 54798U 22175AS  23282.63794013  .00010617  00000-0  68386-3 0  9999,2 54798  53.2185  18.5714 0001628  78.3896 281.7279 15.08855224 47112,6917.834,95.437,540.825,538.573,0.0
54798.0,STARLINK-5420,PAYLOAD,2023-10-10 13:34:01,15.08864596,0.0001799,53.2185,14.4087,84.7361,275.3837,0.00077518,0.00012079,0.0,0 STARLINK-5420,1 54798U 22175AS  23283.56529619  .00012079  00000-0  77518-3 0  9991,2 54798  53.2185  14.4087 0001799  84.7361 275.3837 15.08864596 45093,6917.805,95.436,540.915,538.426,0.0
54798.0,STARLINK-5420,PAYLOAD,2023-10-11 13:24:49,15.0883902,0.000136,53.2175,9.9482,116.7102,243.4029,0.00064874,0.00010052,0.0,0 STARLINK-5420,1 54798U 22175AS  23284.55890201  .00010052  00000-0  64874-3 0  9999,2 54798  53.2175   9.9482 0001360 116.7102 243.4029 15.08839020 45243,6917.883,95.438,540.689,538.808,0.0
54798.0,STARLINK-5420,PAYLOAD,2023-10-12 05:18:40,15.08838338,0.0001233,53.217,6.9769,86.8056,273.3077,0.00031237,4.687e-05,0.0,0 STARLINK-5420,1 54798U 22175AS  23285.22130671  .00004687  00000-0  31237-3 0  9996,2 54798  53.2170   6.9769 0001233  86.8056 273.3077 15.08838338 45344,6917.885,95.438,540.603,538.897,0.0
54798.0,STARLINK-5420,PAYLOAD,2023-10-12 13:15:36,15.08845038,0.0001374,53.2175,5.491,86.4573,273.6577,0.00076415,0.00011896,0.0,0 STARLINK-5420,1 54798U 22175AS  23285.55250449  .00011896  00000-0  76415-3 0  9995,2 54798  53.2175   5.4910 0001374  86.4573 273.6577 15.08845038 47555,6917.865,95.437,540.681,538.779,0.0
54798.0,STARLINK-5420,PAYLOAD,2023-10-13 11:31:00,15.08843047,0.0001405,53.2168,1.3266,78.0721,282.0428,0.00026657,3.957e-05,0.0,0 STARLINK-5420,1 54798U 22175AS  23286.47986851  .00003957  00000-0  26657-3 0  9992,2 54798  53.2168   1.3266 0001405  78.0721 282.0428 15.08843047 45536,6917.871,95.437,540.708,538.764,0.0
54798.0,STARLINK-5420,PAYLOAD,2023-10-14 11:21:47,15.08857368,0.000158,53.2183,356.865,85.5918,274.5254,0.00046062,7.054e-05,0.0,0 STARLINK-5420,1 54798U 22175AS  23287.47346175  .00007054  00000-0  46062-3 0  9996,2 54798  53.2183 356.8650 0001580  85.5918 274.5254 15.08857368 47843,6917.827,95.436,540.785,538.599,0.0
